{"type": "FeatureCollection", "features": [{"type": "Feature", "properties": {"ip": "150.171.28.10", "url": "https://bat.bing.com/bat.js"}, "geometry": {"type": "Point", "coordinates": [-122.1215, 47.674]}}, {"type": "Feature", "properties": {"ip": "99.84.160.13", "url": "https://js.stripe.com/v3/fingerprinted/js/consumerSchema-9407247883c2d79a9df960775dba69ce.js"}, "geometry": {"type": "Point", "coordinates": [-74.006, 40.7143]}}, {"type": "Feature", "properties": {"ip": "142.251.151.119", "url": "https://www.gstatic.com/recaptcha/api2/logo_48.png"}, "geometry": {"type": "Point", "coordinates": [-122.1175, 38.0088]}}, {"type": "Feature", "properties": {"ip": "104.18.33.201", "url": "https://www.thereformation.com/on/demandware.static/Sites-reformation-us-Site/-/en_US/v1786030529021/js/cartridges_org_reformation_cartridge_client_default_js_product_productBadges_js.js"}, "geometry": {"type": "Point", "coordinates": [-122.3971, 37.7621]}}, {"type": "Feature", "properties": {"ip": "34.8.38.243", "url": "https://rs.fullstory.com/rec/bundle/v2?OrgId=o-19Y02A-na1&UserId=777e799f-e36e-4893-9dc9-9babd1adb9b6&SessionId=4e79218d-e01a-4375-8ae3-ca426811a323&PageId=a7cfcb1d-486e-4a0b-a253-4991ad0e6705&Seq=2&ClientTime=1786058486441&CompiledVersion=f12d87c7e2a8c68a8f855cc16ce6a0e337dfc1da&PageStart=1786058481308&PrevBundleTime=1786058484079&LastActivity=2334&ContentEncoding=gzip"}, "geometry": {"type": "Point", "coordinates": [-94.5786, 39.0997]}}, {"type": "Feature", "properties": {"ip": "142.251.156.119", "url": "https://www.google.com/recaptcha/api2/anchor?ar=1&k=6LeCmUElAAAAANv4Qk9pTmxcogQdpngJdH2nVk-F&co=aHR0cHM6Ly93d3cudGhlcmVmb3JtYXRpb24uY29tOjQ0Mw..&hl=en&v=w_Yb7dGGXaKesJ7BMiqFJqBG&size=invisible&anchor-ms=20000&execute-ms=30000&cb=y8296ic01ynt"}, "geometry": {"type": "Point", "coordinates": [-122.1175, 38.0088]}}, {"type": "Feature", "properties": {"ip": "104.18.87.42", "url": "https://cdn.cookielaw.org/logos/static/ot_guard_logo.svg"}, "geometry": {"type": "Point", "coordinates": [-122.3971, 37.7621]}}, {"type": "Feature", "properties": {"ip": "104.16.228.60", "url": "https://webservices.global-e.com/merchant/changeshippingandcurrency?autoshow=false&merchantid=1008&country=US&culture=en-US&currency=USD&v=2.1.4&environment=live&loadSwitcherData=false"}, "geometry": {"type": "Point", "coordinates": [-122.3971, 37.7621]}}, {"type": "Feature", "properties": {"ip": "157.240.241.1", "url": "https://connect.facebook.net/signals/config/571594179652980?v=2.9.373&r=stable&domain=www.thereformation.com&hme=6d1ed5deee7eafc01c53d9e9fc3c4e10db50c3d28237bc4932686777e5c3969a&ex_m=111%2C215%2C163%2C23%2C76%2C77%2C154%2C72%2C71%2C11%2C172%2C96%2C17%2C146%2C134%2C41%2C79%2C84%2C142%2C168%2C174%2C27%2C15%2C28%2C29%2C30%2C32%2C50%2C155%2C81%2C119%2C19%2C21%2C46%2C42%2C44%2C43%2C89%2C98%2C102%2C117%2C153%2C156%2C48%2C118%2C25%2C22%2C126%2C73%2C38%2C158%2C157%2C159%2C150%2C148%2C26%2C37%2C61%2C116%2C170%2C74%2C18%2C161%2C121%2C87%2C70%2C20%2C91%2C92%2C123%2C90%2C144%2C143%2C147%2C103%2C169%2C36%2C51%2C120%2C49%2C8%2C4%2C5%2C7%2C6%2C3%2C97%2C108%2C175%2C182%2C229%2C78%2C242%2C241%2C240%2C24%2C35%2C57%2C110%2C63%2C10%2C67%2C104%2C105%2C106%2C112%2C137%2C33%2C31%2C139%2C140%2C141%2C136%2C135%2C164%2C80%2C167%2C165%2C166%2C52%2C62%2C130%2C16%2C171%2C47%2C286%2C287%2C285%2C300%2C318%2C222%2C211%2C64%2C212%2C210%2C321%2C312%2C54%2C223%2C114%2C138%2C86%2C128%2C56%2C127%2C133%2C132%2C60%2C68%2C66%2C160%2C82%2C83%2C122%2C39%2C34%2C55%2C58%2C107%2C173%2C1%2C131%2C14%2C129%2C12%2C2%2C59%2C99%2C69%2C65%2C125%2C95%2C94%2C176%2C177%2C100%2C101%2C9%2C109%2C53%2C151%2C93%2C85%2C75%2C124%2C113%2C45%2C152%2C0%2C88%2C145%2C149%2C162%2C40%2C115%2C13%2C178"}, "geometry": {"type": "Point", "coordinates": [-74.006, 40.7143]}}, {"type": "Feature", "properties": {"ip": "52.85.61.19", "url": "https://m.stripe.network/out-4.5.45.js"}, "geometry": {"type": "Point", "coordinates": [-74.1724, 40.7357]}}, {"type": "Feature", "properties": {"ip": "199.232.36.84", "url": "https://ct.pinterest.com/v3/?tid=2612949610740&pd=%7B%22np%22%3A%22gtm%22%2C%22gtm_version%22%3A%22legacy%22%2C%22pin_unauth%22%3A%22dWlkPU1qY3dNRFJpTldRdE0ySTVaQzAwTVRSbExUZ3dPRGd0WmpGaFptWmxabU0yTW1NMw%22%2C%22derived_epik%22%3A%22dj0yJnU9MUZpeGdCNzZkTkU4N2RyT3ZoSFhudEkwd0VZejlxWW4mbj1qTW84NmN1V0d2UF9pRVJjQ2NCdGdRJm09MSZ0PUFBQUFBR3AxRmNrJnJtPTEmcnQ9QUFBQUFHcDFGY2smc3A9Mg%22%7D&event=init&ad=%7B%22loc%22%3A%22https%3A%2F%2Fwww.thereformation.com%2F%22%2C%22ref%22%3A%22https%3A%2F%2Fwww.thereformation.com%2Fnew%3Fpage%3D2%22%2C%22if%22%3Afalse%2C%22sh%22%3A1067%2C%22sw%22%3A1707%2C%22mh%22%3A%2223a223e8%22%2C%22is_eu%22%3Afalse%2C%22epikDataSource%22%3Anull%2C%22derivedEpikDataSource%22%3A%22fpc_ls%22%2C%22unauthIdDataSource%22%3A%22fpc_ls%22%2C%22architecture%22%3A%22x86%22%2C%22bitness%22%3A%2264%22%2C%22brands%22%3A%5B%7B%22brand%22%3A%22Not%3BA%3DBrand%22%2C%22version%22%3A%228%22%7D%2C%7B%22brand%22%3A%22Chromium%22%2C%22version%22%3A%22150%22%7D%2C%7B%22brand%22%3A%22Google%20Chrome%22%2C%22version%22%3A%22150%22%7D%5D%2C%22mobile%22%3Afalse%2C%22model%22%3A%22%22%2C%22platform%22%3A%22Windows%22%2C%22platformVersion%22%3A%2219.0.0%22%2C%22uaFullVersion%22%3A%22150.0.7871.189%22%7D&cb=1786058481295"}, "geometry": {"type": "Point", "coordinates": [-74.006, 40.7143]}}, {"type": "Feature", "properties": {"ip": "199.232.37.137", "url": "https://res.cloudinary.com/reformation/image/upload/c_scale,w_3840,f_auto,q_auto/v1/home%20banner%202025/homepage%20content%20tiles%202025/1318768.4.MEMORY_LANE?_i=AH"}, "geometry": {"type": "Point", "coordinates": [-74.006, 40.7143]}}, {"type": "Feature", "properties": {"ip": "34.102.147.248", "url": "https://intljs.rmtag.com/115232.ct.js"}, "geometry": {"type": "Point", "coordinates": [-94.5786, 39.0997]}}, {"type": "Feature", "properties": {"ip": "23.43.85.44", "url": "https://analytics.tiktok.com/api/v2/pixel/act"}, "geometry": {"type": "Point", "coordinates": [-74.4121, 40.5187]}}, {"type": "Feature", "properties": {"ip": "34.49.241.189", "url": "https://logx.optimizely.com/v1/events"}, "geometry": {"type": "Point", "coordinates": [-94.5786, 39.0997]}}, {"type": "Feature", "properties": {"ip": "157.240.241.35", "url": "https://www.facebook.com/tr/"}, "geometry": {"type": "Point", "coordinates": [-74.006, 40.7143]}}, {"type": "Feature", "properties": {"ip": "18.210.82.37", "url": "https://gtm.thereformation.com/_/service_worker/6830/sw_iframe.html?origin=https%3A%2F%2Fwww.thereformation.com&1p=1"}, "geometry": {"type": "Point", "coordinates": [-77.4875, 39.0437]}}, {"type": "Feature", "properties": {"ip": "142.250.65.72", "url": "https://www.googletagmanager.com/gtag/js?id=G-7BLG0E10ZJ&cx=c&gtm=4e6852"}, "geometry": {"type": "Point", "coordinates": [-74.006, 40.7143]}}, {"type": "Feature", "properties": {"ip": "151.101.193.155", "url": "https://code.jquery.com/jquery-3.5.1.min.js"}, "geometry": {"type": "Point", "coordinates": [-122.3971, 37.7621]}}, {"type": "Feature", "properties": {"ip": "104.18.65.57", "url": "https://cdn.optimizely.com/js/27453121211.js"}, "geometry": {"type": "Point", "coordinates": [-122.3971, 37.7621]}}, {"type": "Feature", "properties": {"ip": "142.250.72.3", "url": "https://www.gstatic.com/recaptcha/releases/w_Yb7dGGXaKesJ7BMiqFJqBG/styles__ltr.css"}, "geometry": {"type": "Point", "coordinates": [-74.006, 40.7143]}}, {"type": "Feature", "properties": {"ip": "199.232.38.97", "url": "https://media.thereformation.com/image/upload/c_scale,h_96,w_96/assets/ref_spinning_logo.webp"}, "geometry": {"type": "Point", "coordinates": [-74.006, 40.7143]}}, {"type": "Feature", "properties": {"ip": "104.16.31.61", "url": "https://globale-analytics-sdk.global-e.com/PROD/bundle.js"}, "geometry": {"type": "Point", "coordinates": [-122.3971, 37.7621]}}, {"type": "Feature", "properties": {"ip": "35.201.112.186", "url": "https://edge.fullstory.com/s/fs.js"}, "geometry": {"type": "Point", "coordinates": [-94.5786, 39.0997]}}, {"type": "Feature", "properties": {"ip": "23.49.250.155", "url": "https://analytics.tiktok.com/i18n/pixel/static/main.MTAwMWEwYTFlOQ.js"}, "geometry": {"type": "Point", "coordinates": [-74.4121, 40.5187]}}, {"type": "Feature", "properties": {"ip": "3.223.246.131", "url": "https://p.cquotient.com/pebble?tla=bhcn-reformation-us&activityType=viewPage&callback=CQuotient._act_callback0&cookieId=abyduP3AJCpIDmP9WP4Yh0eNy7&realm=BHCN&siteId=reformation-us&instanceType=prd&referrer=https%3A%2F%2Fwww.thereformation.com%2Fnew%3Fpage%3D2&currentLocation=https%3A%2F%2Fwww.thereformation.com%2F&__cq_uuid=ee9b5840-7b0f-11f1-bcd9-abc687c65759&__cq_seg=0~0.00!1~0.00!2~0.00!3~0.00!4~0.00!5~0.00!6~0.00!7~0.00!8~0.00!9~0.00&__fbp=fb.1.1786058114557.21363159587814538&ls=true&_=1786058481665&v=v3.1.3&fbPixelId=__UNKNOWN__&json=%7B%22cookieId%22%3A%22abyduP3AJCpIDmP9WP4Yh0eNy7%22%2C%22realm%22%3A%22BHCN%22%2C%22siteId%22%3A%22reformation-us%22%2C%22instanceType%22%3A%22prd%22%2C%22referrer%22%3A%22https%3A%2F%2Fwww.thereformation.com%2Fnew%3Fpage%3D2%22%2C%22currentLocation%22%3A%22https%3A%2F%2Fwww.thereformation.com%2F%22%2C%22__cq_uuid%22%3A%22ee9b5840-7b0f-11f1-bcd9-abc687c65759%22%2C%22__cq_seg%22%3A%220~0.00!1~0.00!2~0.00!3~0.00!4~0.00!5~0.00!6~0.00!7~0.00!8~0.00!9~0.00%22%2C%22__fbp%22%3A%22fb.1.1786058114557.21363159587814538%22%2C%22ls%22%3Atrue%2C%22_%22%3A1786058481665%2C%22v%22%3A%22v3.1.3%22%2C%22fbPixelId%22%3A%22__UNKNOWN__%22%7D"}, "geometry": {"type": "Point", "coordinates": [-77.4875, 39.0437]}}, {"type": "Feature", "properties": {"ip": "104.16.80.73", "url": "https://static.cloudflareinsights.com/beacon.min.js/v4513226cdae34746b4dedf0b4dfa099e1781791509496"}, "geometry": {"type": "Point", "coordinates": [-122.3971, 37.7621]}}, {"type": "Feature", "properties": {"ip": "3.171.122.120", "url": "https://cdn.cquotient.com/js/v2/gretel.min.js"}, "geometry": {"type": "Point", "coordinates": [-74.006, 40.7143]}}, {"type": "Feature", "properties": {"ip": "104.17.207.5", "url": "https://cdn.jsdelivr.net/npm/cloudinary-core@latest/cloudinary-core-shrinkwrap.min.js"}, "geometry": {"type": "Point", "coordinates": [-122.3971, 37.7621]}}, {"type": "Feature", "properties": {"ip": "54.186.23.98", "url": "https://r.stripe.com/b"}, "geometry": {"type": "Point", "coordinates": [-119.7006, 45.8399]}}, {"type": "Feature", "properties": {"ip": "199.232.38.217", "url": "https://cdn.speedcurve.com/js/lux.js?id=370145938"}, "geometry": {"type": "Point", "coordinates": [-74.006, 40.7143]}}, {"type": "Feature", "properties": {"ip": "142.251.211.174", "url": "https://analytics.google.com/g/collect?v=2&tid=G-M3XP66ENNS&gtm=45je6852v892701221z86965830za20gzb6965830zd6965830&_p=1786058480356&gcs=G111&gcd=13v3v3n3n5l1&npa=0&dma=0&gdid=dYWJhMj&_eu=EAAAAGQC&are=1&cid=1706960288.1786058114&frm=0&ir=1&pscdl=noapi&rcb=14&sr=1707x1067&uaa=x86&uab=64&uafvl=Not%253BA%253DBrand%3B8.0.0.0%7CChromium%3B150.0.7871.189%7CGoogle%2520Chrome%3B150.0.7871.189&uam=&uamb=0&uap=Windows&uapv=19.0.0&uaw=0&ul=en-us&gaf=2&_s=2&tag_exp=115616986~115938466~115938468~118012009~118897920~118897930~119527020~119896802&uid=abyduP3AJCpIDmP9WP4Yh0eNy7&dl=https%3A%2F%2Fwww.thereformation.com%2F&sid=1786058114&sct=1&seg=1&dr=https%3A%2F%2Fwww.thereformation.com%2Fnew%3Fpage%3D2&dt=Sustainable%20Women%27s%20Clothing%20and%20Accessories%20%7C%20Reformation&_tu=CA&en=experience_impression&ep.full_referrer=https%3A%2F%2Fwww.thereformation.com%2Fnew%3Fpage%3D2&ep.page_type=Home%20Page&ep.login_status=Logged%20Out&ep.returning_purchaser=No&ep.country_selected=US&ep.currency_selected=USD&ep.customer_group=Everyone%2C%20New%20Customers&ep.ab_tests=&tfd=6005"}, "geometry": {"type": "Point", "coordinates": [-74.006, 40.7143]}}, {"type": "Feature", "properties": {"ip": "18.204.6.152", "url": "https://analytics.thereformation.com/events/40fe8d88b5c5305526072d0403f4a9d5e44daa4dfdc93b0dce2c9e366a917b75"}, "geometry": {"type": "Point", "coordinates": [-77.4875, 39.0437]}}, {"type": "Feature", "properties": {"ip": "104.18.66.57", "url": "https://a27449950652.cdn.optimizely.com/client_storage/a27449950652.html"}, "geometry": {"type": "Point", "coordinates": [-122.3971, 37.7621]}}, {"type": "Feature", "properties": {"ip": "104.18.32.137", "url": "https://geolocation.onetrust.com/cookieconsentpub/v1/geo/location"}, "geometry": {"type": "Point", "coordinates": [-122.3971, 37.7621]}}, {"type": "Feature", "properties": {"ip": "44.227.239.54", "url": "https://m.stripe.com/6"}, "geometry": {"type": "Point", "coordinates": [-119.7006, 45.8399]}}, {"type": "Feature", "properties": {"ip": "18.173.132.85", "url": "https://js.stripe.com/v3/"}, "geometry": {"type": "Point", "coordinates": [-74.006, 40.7143]}}, {"type": "Feature", "properties": {"ip": "142.251.211.166", "url": "https://ad.doubleclick.net/ccm/s/collect?auid=1470552089.1786058113&gtm=45He6852v6965830za200zd6965830xea&fmt=8"}, "geometry": {"type": "Point", "coordinates": [-74.006, 40.7143]}}, {"type": "Feature", "properties": {"ip": "13.32.241.27", "url": "https://m.stripe.network/inner.html"}, "geometry": {"type": "Point", "coordinates": [-74.006, 40.7143]}}]}